NORAD_CAT_ID,OBJECT_NAME,OBJECT_TYPE,EPOCH,MEAN_MOTION,ECCENTRICITY,INCLINATION,RA_OF_ASC_NODE,ARG_OF_PERICENTER,MEAN_ANOMALY,BSTAR,MEAN_MOTION_DOT,MEAN_MOTION_DDOT,TLE_LINE0,TLE_LINE1,TLE_LINE2,SEMIMAJOR_AXIS,PERIOD,APOGEE,PERIGEE,DECAYED
51739.0,STARLINK-3516,PAYLOAD,2024-04-02 09:31:25,15.08847941,0.0001267,53.2166,249.792,90.5689,269.5449,0.0007245,0.00011264,0.0,0 STARLINK-3516,1 51739U 22016AB  24093.39682641  .00011264  00000-0  72450-3 0  9998,2 51739  53.2166 249.7920 0001267  90.5689 269.5449 15.08847941116932,6917.856,95.437,540.598,538.845,0.0
51739.0,STARLINK-3516,PAYLOAD,2024-04-02 20:39:07,15.0887161,0.0001367,53.2165,247.7108,90.9881,269.1268,0.0010561,0.00016574,0.0,0 STARLINK-3516,1 51739U 22016AB  24093.86049899  .00016574  00000-0  10561-2 0  9995,2 51739  53.2165 247.7108 0001367  90.9881 269.1268 15.08871610118124,6917.784,95.436,540.594,538.703,0.0
51739.0,STARLINK-3516,PAYLOAD,2024-04-03 09:22:11,15.0886182,0.0001122,53.2161,245.3317,80.2959,279.816,2.2715e-05,7.4e-07,0.0,0 STARLINK-3516,1 51739U 22016AB  24094.39041071  .00000074  00000-0  22715-4 0  9992,2 51739  53.2161 245.3317 0001122  80.2959 279.8160 15.08861820118203,6917.814,95.436,540.455,538.903,0.0
51739.0,STARLINK-3516,PAYLOAD,2024-04-03 20:29:53,15.08851229,0.0001293,53.2154,243.2492,100.2294,259.8843,-3.3602e-05,-8.23e-06,0.0,0 STARLINK-3516,1 51739U 22016AB  24094.85408948 -.00000823  00000-0 -33602-4 0  9994,2 51739  53.2154 243.2492 0001293 100.2294 259.8843 15.08851229118275,6917.846,95.437,540.606,538.817,0.0
51739.0,STARLINK-3516,PAYLOAD,2024-04-04 13:59:08,15.08841799,0.0001473,53.2158,239.9778,89.8623,270.2538,-0.00015103,-2.691e-05,0.0,0 STARLINK-3516,1 51739U 22016AB  24095.58273312 -.00002691  00000-0 -15103-3 0  9990,2 51739  53.2158 239.9778 0001473  89.8623 270.2538 15.08841799118387,6917.875,95.437,540.759,538.721,0.0
51739.0,STARLINK-3516,PAYLOAD,2024-04-04 17:09:54,15.08847496,0.0001532,53.2163,239.3825,89.3955,270.7213,-9.6096e-05,-1.817e-05,0.0,0 STARLINK-3516,1 51739U 22016AB  24095.71521213 -.00001817  00000-0 -96096-4 0  9991,2 51739  53.2163 239.3825 0001532  89.3955 270.7213 15.08847496117282,6917.857,95.437,540.782,538.663,0.0
51739.0,STARLINK-3516,PAYLOAD,2024-04-05 02:42:12,15.08857012,0.0001566,53.2165,237.598,82.9451,277.1719,4.5446e-05,4.36e-06,0.0,0 STARLINK-3516,1 51739U 22016AB  24096.11264486  .00000436  00000-0  45446-4 0  9999,2 51739  53.2165 237.5980 0001566  82.9451 277.1719 15.08857012118461,6917.828,95.436,540.777,538.61,0.0
51739.0,STARLINK-3516,PAYLOAD,2024-04-05 09:03:45,15.08851135,0.0001374,53.2164,236.4088,83.6426,276.4723,0.00018127,2.599e-05,0.0,0 STARLINK-3516,1 51739U 22016AB  24096.37760712  .00002599  00000-0  18127-3 0  9997,2 51739  53.2164 236.4088 0001374  83.6426 276.4723 15.08851135118506,6917.846,95.437,540.662,538.761,0.0
51739.0,STARLINK-3516,PAYLOAD,2024-04-05 15:25:17,15.0884791,0.0001391,53.2153,235.2176,96.4201,263.695,0.00018012,2.58e-05,0.0,0 STARLINK-3516,1 51739U 22016AB  24096.64256740  .00002580  00000-0  18012-3 0  9991,2 51739  53.2153 235.2176 0001391  96.4201 263.6950 15.08847910117427,6917.856,95.437,540.683,538.759,0.0
51739.0,STARLINK-3516,PAYLOAD,2024-04-05 17:00:40,15.08848538,0.0001425,53.2155,234.9226,89.6355,270.48,0.00021719,3.171e-05,0.0,0 STARLINK-3516,1 51739U 22016AB  24096.70880693  .00003171  00000-0  21719-3 0  9993,2 51739  53.2155 234.9226 0001425  89.6355 270.4800 15.08848538117431,6917.854,95.437,540.705,538.733,0.0
51739.0,STARLINK-3516,PAYLOAD,2024-04-06 15:16:04,15.08845744,0.0001707,53.218,230.7614,81.7177,278.4008,0.0001215,1.646e-05,0.0,0 STARLINK-3516,1 51739U 22016AB  24097.63616848  .00001646  00000-0  12150-3 0  9999,2 51739  53.2180 230.7614 0001707  81.7177 278.4008 15.08845744117571,6917.863,95.437,540.909,538.547,0.0
51739.0,STARLINK-3516,PAYLOAD,2024-04-06 18:26:51,15.0883892,0.0001655,53.2166,230.1687,73.977,286.1404,4.0464e-05,3.56e-06,0.0,0 STARLINK-3516,1 51739U 22016AB  24097.76865141  .00000356  00000-0  40464-4 0  9992,2 51739  53.2166 230.1687 0001655  73.9770 286.1404 15.08838920118714,6917.884,95.438,540.894,538.604,0.0
51739.0,STARLINK-3516,PAYLOAD,2024-04-07 08:45:19,15.08837115,0.0001364,53.2165,227.4901,87.2822,272.8326,-1.2819e-06,-3.08e-06,0.0,0 STARLINK-3516,1 51739U 22016AB  24098.36481187 -.00000308  00000-0 -12819-5 0  9996,2 51739  53.2165 227.4901 0001364  87.2822 272.8326 15.08837115117689,6917.889,95.438,540.698,538.811,0.0
51739.0,STARLINK-3516,PAYLOAD,2024-04-07 15:06:52,15.08835708,0.000149,53.2175,226.3013,80.9259,279.1901,-2.637e-05,-7.08e-06,0.0,0 STARLINK-3516,1 51739U 22016AB  24098.62977371 -.00000708  00000-0 -26370-4 0  9990,2 51739  53.2175 226.3013 0001490  80.9259 279.1901 15.08835708117726,6917.894,95.438,540.789,538.728,0.0
51739.0,STARLINK-3516,PAYLOAD,2024-04-08 14:57:39,15.0881788,0.0002099,53.2155,221.8385,88.1615,271.9617,0.00040936,6.229e-05,0.0,0 STARLINK-3516,1 51739U 22016AB  24099.62337664  .00006229  00000-0  40936-3 0  9991,2 51739  53.2155 221.8385 0002099  88.1615 271.9617 15.08817880117879,6917.948,95.439,541.265,538.361,0.0
51739.0,STARLINK-3516,PAYLOAD,2024-04-09 14:48:26,15.08836787,0.0001988,53.216,217.3776,89.2278,270.8942,7.1776e-05,8.54e-06,0.0,0 STARLINK-3516,1 51739U 22016AB  24100.61697744  .00000854  00000-0  71776-4 0  9996,2 51739  53.2160 217.3776 0001988  89.2278 270.8942 15.08836787118026,6917.89,95.438,541.13,538.38,0.0
51739.0,STARLINK-3516,PAYLOAD,2024-04-09 17:59:13,15.08836783,0.0001406,53.219,216.784,81.8033,278.3119,6.8241e-05,7.98e-06,0.0,0 STARLINK-3516,1 51739U 22016AB  24100.74945810  .00000798  00000-0  68241-4 0  9990,2 51739  53.2190 216.7840 0001406  81.8033 278.3119 15.08836783119167,6917.89,95.438,540.728,538.783,0.0
51739.0,STARLINK-3516,PAYLOAD,2024-04-10 14:39:14,15.08835998,0.000203,53.2268,212.9209,88.1652,271.9573,6.3896e-05,7.29e-06,0.0,0 STARLINK-3516,1 51739U 22016AB  24101.61058079  .00000729  00000-0  63896-4 0  9994,2 51739  53.2268 212.9209 0002030  88.1652 271.9573 15.08835998118171,6917.893,95.438,541.162,538.353,0.0
51739.0,STARLINK-3516,PAYLOAD,2024-04-10 17:50:00,15.08832192,0.0001292,53.2166,212.3227,82.2158,277.8981,3.5068e-05,2.7e-06,0.0,0 STARLINK-3516,1 51739U 22016AB  24101.74306313  .00000270  00000-0  35068-4 0  9996,2 51739  53.2166 212.3227 0001292  82.2158 277.8981 15.08832192118190,6917.904,95.438,540.663,538.875,0.0
51739.0,STARLINK-3516,PAYLOAD,2024-04-11 12:54:37,15.08836735,0.0001674,53.2181,208.7559,93.5027,266.6156,0.00016775,2.382e-05,0.0,0 STARLINK-3516,1 51739U 22016AB  24102.53793821  .00002382  00000-0  16775-3 0  9997,2 51739  53.2181 208.7559 0001674  93.5027 266.6156 15.08836735119433,6917.89,95.438,540.913,538.597,0.0
51739.0,STARLINK-3516,PAYLOAD,2024-04-11 14:30:00,15.08841949,0.0001268,53.2178,208.4574,83.6731,276.4405,0.00011211,1.497e-05,0.0,0 STARLINK-3516,1 51739U 22016AB  24102.60417699  .00001497  00000-0  11211-3 0  9997,2 51739  53.2178 208.4574 0001268  83.6731 276.4405 15.08841949118320,6917.874,95.437,540.617,538.862,0.0
51739.0,STARLINK-3516,PAYLOAD,2024-04-12 14:20:48,15.08840609,0.0001296,53.2171,203.9977,86.386,273.728,8.1242e-05,1.005e-05,0.0,0 STARLINK-3516,1 51739U 22016AB  24103.59778065  .00001005  00000-0  81242-4 0  9990,2 51739  53.2171 203.9977 0001296  86.3860 273.7280 15.08840609118473,6917.879,95.438,540.64,538.847,0.0
51739.0,STARLINK-3516,PAYLOAD,2024-04-13 12:36:12,15.08840707,0.0001871,53.2183,199.8356,60.7856,299.3323,7.7059e-05,9.38e-06,0.0,0 STARLINK-3516,1 51739U 22016AB  24104.52514387  .00000938  00000-0  77059-4 0  9994,2 51739  53.2183 199.8356 0001871  60.7856 299.3323 15.08840707118617,6917.878,95.438,541.038,538.449,0.0
51739.0,STARLINK-3516,PAYLOAD,2024-04-14 12:26:59,15.08844894,0.0001484,53.2169,195.3757,81.1038,279.0122,0.00012728,1.739e-05,0.0,0 STARLINK-3516,1 51739U 22016AB  24105.51873860  .00001739  00000-0  12728-3 0  9999,2 51739  53.2169 195.3757 0001484  81.1038 279.0122 15.08844894119889,6917.865,95.437,540.757,538.704,0.0
51739.0,STARLINK-3516,PAYLOAD,2024-04-15 12:17:45,15.08847317,0.0001473,53.2175,190.9126,105.1539,254.9616,9.7147e-05,1.259e-05,0.0,0 STARLINK-3516,1 51739U 22016AB  24106.51233384  .00001259  00000-0  97147-4 0  9997,2 51739  53.2175 190.9126 0001473 105.1539 254.9616 15.08847317118914,6917.858,95.437,540.742,538.704,0.0
51739.0,STARLINK-3516,PAYLOAD,2024-04-16 12:08:32,15.08846111,0.0001355,53.216,186.4536,95.9966,264.1181,0.00010886,1.445e-05,0.0,0 STARLINK-3516,1 51739U 22016AB  24107.50593525  .00001445  00000-0  10886-3 0  9994,2 51739  53.2160 186.4536 0001355  95.9966 264.1181 15.08846111120185,6917.862,95.437,540.664,538.789,0.0
51739.0,STARLINK-3516,PAYLOAD,2024-04-17 05:37:47,15.08837027,0.0001403,53.2164,183.1813,85.0354,275.0798,-7.597e-06,-4.09e-06,0.0,0 STARLINK-3516,1 51739U 22016AB  24108.23458051 -.00000409  00000-0 -75970-5 0  9997,2 51739  53.2164 183.1813 0001403  85.0354 275.0798 15.08837027120299,6917.889,95.438,540.725,538.784,0.0
51739.0,STARLINK-3516,PAYLOAD,2024-04-17 11:59:21,15.08825741,0.0001327,53.2161,181.9916,73.4241,286.6897,-0.00013881,-2.495e-05,0.0,0 STARLINK-3516,1 51739U 22016AB  24108.49954942 -.00002495  00000-0 -13881-3 0  9993,2 51739  53.2161 181.9916 0001327  73.4241 286.6897 15.08825741120330,6917.924,95.438,540.707,538.871,0.0
51739.0,STARLINK-3516,PAYLOAD,2024-04-17 21:31:38,15.08856577,0.0001166,53.2162,180.2091,74.0328,286.0792,0.00027314,4.064e-05,0.0,0 STARLINK-3516,1 51739U 22016AB  24108.89697062  .00004064  00000-0  27314-3 0  9992,2 51739  53.2162 180.2091 0001166  74.0328 286.0792 15.08856577119271,6917.83,95.437,540.501,538.888,0.0
51739.0,STARLINK-3516,PAYLOAD,2024-04-18 10:14:44,15.08828513,0.0001495,53.2165,177.831,86.963,273.1533,-8.0605e-05,-1.57e-05,0.0,0 STARLINK-3516,1 51739U 22016AB  24109.42690901 -.00001570  00000-0 -80605-4 0  9991,2 51739  53.2165 177.8310 0001495  86.9630 273.1533 15.08828513120476,6917.916,95.438,540.815,538.746,0.0
